NORAD_CAT_ID,OBJECT_NAME,OBJECT_TYPE,EPOCH,MEAN_MOTION,ECCENTRICITY,INCLINATION,RA_OF_ASC_NODE,ARG_OF_PERICENTER,MEAN_ANOMALY,BSTAR,MEAN_MOTION_DOT,MEAN_MOTION_DDOT,TLE_LINE0,TLE_LINE1,TLE_LINE2,SEMIMAJOR_AXIS,PERIOD,APOGEE,PERIGEE,DECAYED
53182.0,STARLINK-4278,PAYLOAD,2024-08-11 08:36:52,15.08845322,0.0001472,53.2164,201.8704,95.6438,264.4722,0.00017245,2.458e-05,0.0,0 STARLINK-4278,1 53182U 22083BC  24224.35894254  .00002458  00000-0  17245-3 0  9999,2 53182  53.2164 201.8704 0001472  95.6438 264.4722 15.08845322115487,6917.864,95.437,540.747,538.711,0.0
53182.0,STARLINK-4278,PAYLOAD,2024-08-11 21:19:57,15.08847518,0.0001459,53.2164,199.4914,94.7714,265.3445,0.0003961,6.023e-05,0.0,0 STARLINK-4278,1 53182U 22083BC  24224.88886325  .00006023  00000-0  39610-3 0  9999,2 53182  53.2164 199.4914 0001459  94.7714 265.3445 15.08847518114923,6917.857,95.437,540.732,538.713,0.0
53182.0,STARLINK-4278,PAYLOAD,2024-08-12 05:16:54,15.0881137,0.0001234,53.2161,198.0046,77.1592,282.9538,-0.00042017,-6.963e-05,0.0,0 STARLINK-4278,1 53182U 22083BC  24225.22007706 -.00006963  00000-0 -42017-3 0  9996,2 53182  53.2161 198.0046 0001234  77.1592 282.9538 15.08811370115613,6917.968,95.439,540.687,538.979,0.0
53182.0,STARLINK-4278,PAYLOAD,2024-08-12 06:52:17,15.08811927,0.0001185,53.2159,197.7064,73.1868,286.9254,-0.00038568,-6.416e-05,0.0,0 STARLINK-4278,1 53182U 22083BC  24225.28631801 -.00006416  00000-0 -38568-3 0  9990,2 53182  53.2159 197.7064 0001185  73.1868 286.9254 15.08811927114989,6917.966,95.439,540.651,539.011,0.0
53182.0,STARLINK-4278,PAYLOAD,2024-08-12 14:49:13,15.08833892,0.0001146,53.2157,196.2194,89.7298,270.3826,0.00018632,2.678e-05,0.0,0 STARLINK-4278,1 53182U 22083BC  24225.61751498  .00002678  00000-0  18632-3 0  9996,2 53182  53.2157 196.2194 0001146  89.7298 270.3826 15.08833892115676,6917.899,95.438,540.557,538.971,0.0
53182.0,STARLINK-4278,PAYLOAD,2024-08-12 22:46:08,15.08844318,0.0001057,53.2152,194.7324,75.6098,284.5012,0.00047979,7.357e-05,0.0,0 STARLINK-4278,1 53182U 22083BC  24225.94871484  .00007357  00000-0  47979-3 0  9995,2 53182  53.2152 194.7324 0001057  75.6098 284.5012 15.08844318115086,6917.867,95.437,540.463,539.001,0.0
53182.0,STARLINK-4278,PAYLOAD,2024-08-13 06:43:04,15.08852829,0.0001033,53.2151,193.2483,80.2952,279.8157,0.001023,0.00016036,0.0,0 STARLINK-4278,1 53182U 22083BC  24226.27991505  .00016036  00000-0  10230-2 0  9992,2 53182  53.2151 193.2483 0001033  80.2952 279.8157 15.08852829115779,6917.841,95.437,540.421,538.992,0.0
53182.0,STARLINK-4278,PAYLOAD,2024-08-14 04:58:28,15.08841791,0.0001344,53.2156,189.0871,95.5052,264.6094,-7.3398e-05,-1.456e-05,0.0,0 STARLINK-4278,1 53182U 22083BC  24227.20727305 -.00001456  00000-0 -73398-4 0  9999,2 53182  53.2156 189.0871 0001344  95.5052 264.6094 15.08841791115917,6917.875,95.437,540.67,538.81,0.0
53182.0,STARLINK-4278,PAYLOAD,2024-08-14 14:30:47,15.0884136,0.0001283,53.2148,187.3013,84.5968,275.5171,0.00015266,2.143e-05,0.0,0 STARLINK-4278,1 53182U 22083BC  24227.60471402  .00002143  00000-0  15266-3 0  9998,2 53182  53.2148 187.3013 0001283  84.5968 275.5171 15.08841360115338,6917.876,95.437,540.629,538.854,0.0
53182.0,STARLINK-4278,PAYLOAD,2024-08-15 04:49:16,15.08840377,0.0001205,53.2163,184.6254,98.0292,262.0837,-4.2398e-06,-3.55e-06,0.0,0 STARLINK-4278,1 53182U 22083BC  24228.20088575 -.00000355  00000-0 -42398-5 0  9993,2 53182  53.2163 184.6254 0001205  98.0292 262.0837 15.08840377116064,6917.879,95.438,540.578,538.911,0.0
53182.0,STARLINK-4278,PAYLOAD,2024-08-15 14:21:34,15.0884604,0.000112,53.2159,182.8393,88.1509,271.9611,1.8382e-05,5e-08,0.0,0 STARLINK-4278,1 53182U 22083BC  24228.59832045  .00000005  00000-0  18382-4 0  9999,2 53182  53.2159 182.8393 0001120  88.1509 271.9611 15.08846040115487,6917.862,95.437,540.502,538.952,0.0
53182.0,STARLINK-4278,PAYLOAD,2024-08-16 03:04:39,15.08849186,0.0001099,53.2154,180.4616,92.4461,267.6657,0.00021389,3.119e-05,0.0,0 STARLINK-4278,1 53182U 22083BC  24229.12823366  .00003119  00000-0  21389-3 0  9994,2 53182  53.2154 180.4616 0001099  92.4461 267.6657 15.08849186116201,6917.852,95.437,540.478,538.957,0.0
53182.0,STARLINK-4278,PAYLOAD,2024-08-17 02:55:26,15.08851066,0.0001112,53.2151,176.0014,99.4544,260.6574,0.00013173,1.81e-05,0.0,0 STARLINK-4278,1 53182U 22083BC  24230.12183230  .00001810  00000-0  13173-3 0  9993,2 53182  53.2151 176.0014 0001112  99.4544 260.6574 15.08851066116353,6917.847,95.437,540.481,538.942,0.0
53182.0,STARLINK-4278,PAYLOAD,2024-08-18 02:46:13,15.08848711,0.0001366,53.2172,171.5384,98.7037,261.411,-9.9346e-05,-1.869e-05,0.0,0 STARLINK-4278,1 53182U 22083BC  24231.11543274 -.00001869  00000-0 -99346-4 0  9994,2 53182  53.2172 171.5384 0001366  98.7037 261.4110 15.08848711116501,6917.854,95.437,540.664,538.774,0.0
53182.0,STARLINK-4278,PAYLOAD,2024-08-18 20:15:27,15.08837538,0.0001322,53.217,168.2654,91.6037,268.5107,-6.4399e-07,-2.98e-06,0.0,0 STARLINK-4278,1 53182U 22083BC  24231.84407225 -.00000298  00000-0 -64399-6 0  9996,2 53182  53.2170 168.2654 0001322  91.6037 268.5107 15.08837538115975,6917.888,95.438,540.667,538.838,0.0
53182.0,STARLINK-4278,PAYLOAD,2024-08-19 02:37:00,15.08834804,0.0001259,53.2168,167.0755,87.2142,272.8994,-2.6055e-05,-7.02e-06,0.0,0 STARLINK-4278,1 53182U 22083BC  24232.10903516 -.00000702  00000-0 -26055-4 0  9995,2 53182  53.2168 167.0755 0001259  87.2142 272.8994 15.08834804116659,6917.896,95.438,540.632,538.89,0.0
53182.0,STARLINK-4278,PAYLOAD,2024-08-19 12:09:18,15.08846268,0.0001177,53.2176,165.2961,101.9555,258.1569,2.6541e-05,1.35e-06,0.0,0 STARLINK-4278,1 53182U 22083BC  24232.50646561  .00000135  00000-0  26541-4 0  9991,2 53182  53.2176 165.2961 0001177 101.9555 258.1569 15.08846268116717,6917.861,95.437,540.54,538.912,0.0
53182.0,STARLINK-4278,PAYLOAD,2024-08-20 02:27:46,15.08848135,0.0001343,53.2164,162.6188,93.1645,266.9501,0.00011197,1.495e-05,0.0,0 STARLINK-4278,1 53182U 22083BC  24233.10262529  .00001495  00000-0  11197-3 0  9996,2 53182  53.2164 162.6188 0001343  93.1645 266.9501 15.08848135116160,6917.856,95.437,540.65,538.791,0.0
53182.0,STARLINK-4278,PAYLOAD,2024-08-21 03:53:58,15.08833117,0.0001223,53.216,157.8628,82.0413,278.0717,8.3872e-05,1.047e-05,0.0,0 STARLINK-4278,1 53182U 22083BC  24234.16247971  .00001047  00000-0  83872-4 0  9990,2 53182  53.2160 157.8628 0001223  82.0413 278.0717 15.08833117116963,6917.901,95.438,540.612,538.92,0.0
